{
  "norad_id": 43207,
  "name": "BEIDOU-3 M4",
  "history": [
    {
      "epoch": "2026-03-27T14:01:00.571296",
      "apogee_km": 21548.926632096885,
      "perigee_km": 21507.217453937013,
      "latitude_deg": 46.99904204396222,
      "longitude_deg": -99.23269855999388,
      "semi_major_axis_km": 27906.20904301695,
      "eccentricity": 0.00074731,
      "inclination_deg": 56.5822,
      "raan_deg": 65.8372,
      "arg_perigee_deg": 354.563,
      "mean_anomaly_deg": 5.4246,
      "mean_motion_rev_day": 1.86230795
    }
  ]
}