{"fetched_at":"2026-03-29T02:12:04Z","count":15717,"tles":[{"name":"BEIDOU-3 M4 (C22)","line1":"1 43207U 18018A   26086.58403439  .00000002  00000+0  00000+0 0  9992","line2":"2 43207  56.5822  65.8372 0007473 354.5630   5.4246  1.86230795 55220","category":"GPS"}]}